[{"OBJECT_NAME":"ONEWEB-0449","OBJECT_ID":"2022-012W","EPOCH":"2026-03-09T21:58:53.238144","MEAN_MOTION":13.10374691,"ECCENTRICITY":0.00014987,"INCLINATION":87.8783,"RA_OF_ASC_NODE":56.0274,"ARG_OF_PERICENTER":74.8005,"MEAN_ANOMALY":285.3288,"EPHEMERIS_TYPE":0,"CLASSIFICATION_TYPE":"U","NORAD_CAT_ID":51642,"ELEMENT_SET_NO":999,"REV_AT_EPOCH":19630,"BSTAR":-0.0017798509,"MEAN_MOTION_DOT":-6.09e-6,"MEAN_MOTION_DDOT":0},{"OBJECT_NAME":"DELTA 1 DEB","OBJECT_ID":"1975-052HB","EPOCH":"2026-03-09T14:31:14.676672","MEAN_MOTION":13.57462697,"ECCENTRICITY":0.0248459,"INCLINATION":99.7574,"RA_OF_ASC_NODE":300.106,"ARG_OF_PERICENTER":109.4818,"MEAN_ANOMALY":315.1681,"EPHEMERIS_TYPE":0,"CLASSIFICATION_TYPE":"U","NORAD_CAT_ID":21547,"ELEMENT_SET_NO":999,"REV_AT_EPOCH":71773,"BSTAR":0.00095186,"MEAN_MOTION_DOT":7.9e-6,"MEAN_MOTION_DDOT":0}]
